[{"OBJECT_NAME":"STARLINK-5407","OBJECT_ID":"2022-177AQ","EPOCH":"2026-03-09T22:00:01.999584","MEAN_MOTION":15.11184678,"ECCENTRICITY":0.00016124,"INCLINATION":42.9996,"RA_OF_ASC_NODE":118.9712,"ARG_OF_PERICENTER":237.2667,"MEAN_ANOMALY":16.9578,"EPHEMERIS_TYPE":0,"CLASSIFICATION_TYPE":"U","NORAD_CAT_ID":54858,"ELEMENT_SET_NO":999,"REV_AT_EPOCH":557,"BSTAR":0.0032943061,"MEAN_MOTION_DOT":0.00056497,"MEAN_MOTION_DDOT":0},{"OBJECT_NAME":"SL-16 DEB","OBJECT_ID":"1992-093JY","EPOCH":"2026-03-07T13:13:58.279008","MEAN_MOTION":15.07529046,"ECCENTRICITY":0.0041412,"INCLINATION":71.2754,"RA_OF_ASC_NODE":129.6393,"ARG_OF_PERICENTER":153.6297,"MEAN_ANOMALY":274.6618,"EPHEMERIS_TYPE":0,"CLASSIFICATION_TYPE":"U","NORAD_CAT_ID":39708,"ELEMENT_SET_NO":999,"REV_AT_EPOCH":64104,"BSTAR":0.0012088,"MEAN_MOTION_DOT":0.00018716,"MEAN_MOTION_DDOT":0}]
